GSAT0216 (GALILEO 20)   
1 43056U 17079B   26177.10544658  .00000062  00000+0  00000+0 0  9994
2 43056  55.0717 221.2611 0004659 276.6161  83.4222  1.70474721 53151
GSAT0217 (GALILEO 21)   
1 43057U 17079C   26177.32624419  .00000063  00000+0  00000+0 0  9994
2 43057  55.0685 221.2528 0003945 287.8828  72.1663  1.70474719 53144
GSAT0218 (GALILEO 22)   
1 43058U 17079D   26178.71948962  .00000068  00000+0  00000+0 0  9996
2 43058  55.0695 221.2120 0006163 274.4572  85.5687  1.70474400 53193
BEIDOU-3 M7             
1 43107U 18003A   26179.08973558 -.00000089  00000+0  00000+0 0  9993
2 43107  54.3171 301.9342 0004910  95.7490 264.3050  1.86228313 57554
BEIDOU-3 M8             
1 43108U 18003B   26180.10824274 -.00000081  00000+0  00000+0 0  9991
2 43108  54.3090 301.8814 0002750 259.2920 100.6793  1.86231229 57582
BEIDOU-3 M4             
1 43207U 18018A   26180.01438008 -.00000060  00000+0  00000+0 0  9990
2 43207  56.6611  62.7586 0007427  23.7598 336.3310  1.86231549 56965
BEIDOU-3 M3             
1 43208U 18018B   26180.08086541 -.00000059  00000+0  00000+0 0  9997
2 43208  56.6611  62.7601 0008125 342.8651  17.1644  1.86231367 56967
BEIDOU-3 M9             
1 43245U 18029A   26178.68786010 -.00000090  00000+0  00000+0 0  9996
2 43245  54.1834 299.5811 0000937 166.7829 193.2191  1.86228615 56093
BEIDOU-3 M10            
1 43246U 18029B   26179.15912422 -.00000086  00000+0  00000+0 0  9993
2 43246  54.1804 299.5911 0003621  39.5768 320.4508  1.86229480 56080
IRNSS-1I                
1 43286U 18035A   26179.79558490  .00000066  00000+0  00000+0 0  9992
2 43286  28.7805  74.0157 0017671 182.6115   1.5908  1.00277388 30197
COSMOS 2527 [GLONASS-M] 
1 43508U 18053A   26178.87771987 -.00000045  00000+0  00000+0 0  9993
2 43508  65.5836  73.5506 0006813 236.4648 123.5150  2.13102103 62505
BEIDOU-2 IGSO-7         
1 43539U 18057A   26177.50590209 -.00000028  00000+0  00000+0 0  9997
2 43539  55.1970 162.9757 0104768 237.9790 164.9478  1.00249004 29227
GSAT0221 (GALILEO 25)   
1 43564U 18060A   26178.03689547 -.00000094  00000+0  00000+0 0  9995
2 43564  57.1661 341.5145 0002520 298.2100  61.7583  1.70476269 49335
GSAT0222 (GALILEO 26)   
1 43565U 18060B   26179.42973081 -.00000091  00000+0  00000+0 0  9996
2 43565  57.1685 341.4807 0002257 240.6256 119.3439  1.70476044 49405
GSAT0219 (GALILEO 23)   
1 43566U 18060C   26179.06402313 -.00000092  00000+0  00000+0 0  9993
2 43566  57.1687 341.4920 0001786 313.2076  46.7699  1.70476307 49376
GSAT0220 (GALILEO 24)   
1 43567U 18060D   26178.69843960 -.00000093  00000+0  00000+0 0  9990
2 43567  57.1676 341.5017 0001921 305.3524  54.6226  1.70476279 49354
BEIDOU-3 M5             
1 43581U 18062A   26178.84619419  .00000083  00000+0  00000+0 0  9993
2 43581  54.0860 181.9416 0005768 291.0967  68.8660  1.86228745 53832
BEIDOU-3 M6             
1 43582U 18062B   26178.70971725  .00000085  00000+0  00000+0 0  9992
2 43582  54.0860 181.9355 0005105   8.8787 351.1552  1.86227843 53830
BEIDOU-3 M12            
1 43602U 18067A   26177.03726485  .00000098  00000+0  00000+0 0  9990
2 43602  54.1810 180.7397 0007828  29.5974 330.4748  1.86227758 53285
BEIDOU-3 M11            
1 43603U 18067B   26179.32018159  .00000078  00000+0  00000+0 0  9995
2 43603  54.1783 180.6260 0004587  12.7295 347.3012  1.86227250 53358
BEIDOU-3 M13            
1 43622U 18072A   26179.27497689 -.00000067  00000+0  00000+0 0  9994
2 43622  56.6346  62.2932 0006901 331.0537  28.9612  1.86231424 52861
BEIDOU-3 M14            
1 43623U 18072B   26180.21432763 -.00000058  00000+0  00000+0 0  9993
2 43623  56.6369  62.2566 0005865   5.5220 354.5425  1.86231476 52878
BEIDOU-3 M16            
1 43647U 18078A   26179.83251074 -.00000080  00000+0  00000+0 0  9990
2 43647  54.0786 299.5778 0006917  40.5886 319.4668  1.86232470 52374
BEIDOU-3 M15            
1 43648U 18078B   26179.96178929 -.00000079  00000+0  00000+0 0  9990
2 43648  54.0740 299.5736 0003927  58.0556 301.9871  1.86232603 52397
BEIDOU-3 G1             
1 43683U 18085A   26180.63909547 -.00000101  00000+0  00000+0 0  9997
2 43683   2.8987  97.0115 0008556 353.1837 217.5187  1.00271123 28184
COSMOS 2529 [GLONASS-M] 
1 43687U 18086A   26180.38188307  .00000086  00000+0  00000+0 0  9998
2 43687  64.2959 192.1827 0012123 256.5039 103.4062  2.13102097 59548
BEIDOU-3 M17            
1 43706U 18093A   26177.50233032  .00000095  00000+0  00000+0 0  9994
2 43706  54.1697 181.9800 0010136 292.4713 110.1482  1.86228594 51716
BEIDOU-3 M18            
1 43707U 18093B   26177.30216318  .00000097  00000+0  00000+0 0  9993
2 43707  54.1702 181.9788 0008135 321.1510  38.8204  1.86226640 51707
NAVSTAR 77 (USA 289)    
1 43873U 18109A   26180.00003388 -.00000044  00000+0  00000+0 0  9990
2 43873  55.6885  91.7208 0038499 197.6840 175.4799  2.00562422 55318
BEIDOU-3 IGSO-1         
1 44204U 19023A   26179.48568773 -.00000206  00000+0  00000+0 0  9999
2 44204  58.7105  37.5330 0025747 224.4783 307.9858  1.00288999  7326
BEIDOU-2 G8             
1 44231U 19027A   26178.97744683 -.00000238  00000+0  00000+0 0  9997
2 44231   1.6855  74.5233 0009835 285.1014  52.8069  1.00268598 26187
